STARLINK-3809           
1 52851U 22062X   26068.17326614 -.00000058  00000+0  14440-4 0  9995
2 52851  53.2191  26.4370 0001282  90.8773 269.2366 15.08837001205849
DISKSAT A               
1 67222U 25305D   26068.54789610  .00013824  00000+0  90452-3 0  9996
2 67222  45.0023 251.6019 0004082 318.1929  41.8634 15.07741062 12266
